CTC2_L_00176001-01
1 18594U 24053RU  26070.40843750  .00000000  00000+0  00000-0 0  9996
2 18594 100.0000   0.0000 0000000   0.0000   0.0000 14.89338871    13
CTC2_L_00176001-02
1 18595U 22949HZ  26070.40843750  .00000000  00000+0  00000-0 0  9999
2 18595 100.0000   0.0000 0000000   0.0000  90.0000 14.89338871    13
CTC2_L_00176001-03
1 18596U 26861XJ  26070.40843750  .00000000  00000+0  00000-0 0  9997
2 18596 100.0000   0.0000 0000000   0.0000 180.0000 14.89338871    14
CTC2_L_00176001-04
1 18597U 25413KC  26070.40843750  .00000000  00000+0  00000-0 0  9990
2 18597 100.0000   0.0000 0000000   0.0000 270.0000 14.89338871    15
CTC2_L_00176002-01
1 18598U 22211VN  26070.40843750  .00000000  00000+0  00000-0 0  9994
2 18598 100.0000  12.0000 0000000   0.0000  12.0000 14.89338871    13
CTC2_L_00176002-02
1 18599U 26033CW  26070.40843750  .00000000  00000+0  00000-0 0  9991
2 18599 100.0000  12.0000 0000000   0.0000 102.0000 14.89338871    14
CTC2_L_00176002-03
1 18600U 22627HD  26070.40843750  .00000000  00000+0  00000-0 0  9999
2 18600 100.0000  12.0000 0000000   0.0000 192.0000 14.89338871    16
CTC2_L_00176002-04
1 18601U 26286EK  26070.40843750  .00000000  00000+0  00000-0 0  9995
2 18601 100.0000  12.0000 0000000   0.0000 282.0000 14.89338871    17
CTC2_L_00176003-01
1 18602U 22784RP  26070.40843750  .00000000  00000+0  00000-0 0  9995
2 18602 100.0000  24.0000 0000000   0.0000  24.0000 14.89338871    15
CTC2_L_00176003-02
1 18603U 22564WP  26070.40843750  .00000000  00000+0  00000-0 0  9992
2 18603 100.0000  24.0000 0000000   0.0000 114.0000 14.89338871    16
CTC2_L_00176003-03
1 18604U 26972UD  26070.40843750  .00000000  00000+0  00000-0 0  9990
2 18604 100.0000  24.0000 0000000   0.0000 204.0000 14.89338871    17
CTC2_L_00176003-04
1 18605U 23580WE  26070.40843750  .00000000  00000+0  00000-0 0  9993
2 18605 100.0000  24.0000 0000000   0.0000 294.0000 14.89338871    17
CTC2_L_00176004-01
1 18606U 25037KE  26070.40843750  .00000000  00000+0  00000-0 0  9993
2 18606 100.0000  36.0000 0000000   0.0000  36.0000 14.89338871    15
CTC2_L_00176004-02
1 18607U 25005BS  26070.40843750  .00000000  00000+0  00000-0 0  9999
2 18607 100.0000  36.0000 0000000   0.0000 126.0000 14.89338871    16
CTC2_L_00176004-03
1 18608U 24003VB  26070.40843750  .00000000  00000+0  00000-0 0  9997
2 18608 100.0000  36.0000 0000000   0.0000 216.0000 14.89338871    17
CTC2_L_00176004-04
1 18609U 24673CR  26070.40843750  .00000000  00000+0  00000-0 0  9991
2 18609 100.0000  36.0000 0000000   0.0000 306.0000 14.89338871    18
CTC2_L_00176005-01
1 18610U 25802WU  26070.40843750  .00000000  00000+0  00000-0 0  9998
2 18610 100.0000  48.0000 0000000   0.0000  48.0000 14.89338871    16
CTC2_L_00176005-02
1 18611U 22163KY  26070.40843750  .00000000  00000+0  00000-0 0  9996
2 18611 100.0000  48.0000 0000000   0.0000 138.0000 14.89338871    17
CTC2_L_00176005-03
1 18612U 25993QY  26070.40843750  .00000000  00000+0  00000-0 0  9991
2 18612 100.0000  48.0000 0000000   0.0000 228.0000 14.89338871    18
CTC2_L_00176005-04
1 18613U 22863YL  26070.40843750  .00000000  00000+0  00000-0 0  9995
2 18613 100.0000  48.0000 0000000   0.0000 318.0000 14.89338871    19
CTC2_L_00176006-01
1 18614U 23226CZ  26070.40843750  .00000000  00000+0  00000-0 0  9990
2 18614 100.0000  60.0000 0000000   0.0000  60.0000 14.89338871    18
CTC2_L_00176006-02
1 18615U 23169PS  26070.40843750  .00000000  00000+0  00000-0 0  9997
2 18615 100.0000  60.0000 0000000   0.0000 150.0000 14.89338871    19
CTC2_L_00176006-03
1 18616U 22991LL  26070.40843750  .00000000  00000+0  00000-0 0  9990
2 18616 100.0000  60.0000 0000000   0.0000 240.0000 14.89338871    10
CTC2_L_00176006-04
1 18617U 25110UP  26070.40843750  .00000000  00000+0  00000-0 0  9997
2 18617 100.0000  60.0000 0000000   0.0000 330.0000 14.89338871    11
CTC2_L_00176007-01
1 18618U 25561OO  26070.40843750  .00000000  00000+0  00000-0 0  9998
2 18618 100.0000  72.0000 0000000   0.0000  72.0000 14.89338871    18
CTC2_L_00176007-02
1 18619U 25214UQ  26070.40843750  .00000000  00000+0  00000-0 0  9994
2 18619 100.0000  72.0000 0000000   0.0000 162.0000 14.89338871    19
CTC2_L_00176007-03
1 18620U 23268SC  26070.40843750  .00000000  00000+0  00000-0 0  9993
2 18620 100.0000  72.0000 0000000   0.0000 252.0000 14.89338871    11
CTC2_L_00176007-04
1 18621U 24628JI  26070.40843750  .00000000  00000+0  00000-0 0  9995
2 18621 100.0000  72.0000 0000000   0.0000 342.0000 14.89338871    12
CTC2_L_00176008-01
1 18622U 22423EA  26070.40843750  .00000000  00000+0  00000-0 0  9997
2 18622 100.0000  84.0000 0000000   0.0000  84.0000 14.89338871    19
CTC2_L_00176008-02
1 18623U 26364AT  26070.40843750  .00000000  00000+0  00000-0 0  9996
2 18623 100.0000  84.0000 0000000   0.0000 174.0000 14.89338871    10
CTC2_L_00176008-03
1 18624U 25820AM  26070.40843750  .00000000  00000+0  00000-0 0  9993
2 18624 100.0000  84.0000 0000000   0.0000 264.0000 14.89338871    11
CTC2_L_00176008-04
1 18625U 25881JJ  26070.40843750  .00000000  00000+0  00000-0 0  9991
2 18625 100.0000  84.0000 0000000   0.0000 354.0000 14.89338871    12
CTC2_L_00176009-01
1 18626U 22906FC  26070.40843750  .00000000  00000+0  00000-0 0  9997
2 18626 100.0000  96.0000 0000000   0.0000  96.0000 14.89338871    19
CTC2_L_00176009-02
1 18627U 23542VQ  26070.40843750  .00000000  00000+0  00000-0 0  9995
2 18627 100.0000  96.0000 0000000   0.0000 186.0000 14.89338871    10
CTC2_L_00176009-03
1 18628U 24214ZJ  26070.40843750  .00000000  00000+0  00000-0 0  9993
2 18628 100.0000  96.0000 0000000   0.0000 276.0000 14.89338871    11
CTC2_L_00176009-04
1 18629U 25131TU  26070.40843750  .00000000  00000+0  00000-0 0  9993
2 18629 100.0000  96.0000 0000000   0.0000   6.0000 14.89338871    13
CTC2_L_00176010-01
1 18630U 25900PG  26070.40843750  .00000000  00000+0  00000-0 0  9999
2 18630 100.0000 108.0000 0000000   0.0000 108.0000 14.89338871    12
CTC2_L_00176010-02
1 18631U 25646GM  26070.40843750  .00000000  00000+0  00000-0 0  9997
2 18631 100.0000 108.0000 0000000   0.0000 198.0000 14.89338871    12
CTC2_L_00176010-03
1 18632U 25426CT  26070.40843750  .00000000  00000+0  00000-0 0  9994
2 18632 100.0000 108.0000 0000000   0.0000 288.0000 14.89338871    13
CTC2_L_00176010-04
1 18633U 23977CT  26070.40843750  .00000000  00000+0  00000-0 0  9994
2 18633 100.0000 108.0000 0000000   0.0000  18.0000 14.89338871    15
CTC2_L_00176011-01
1 18634U 26502CJ  26070.40843750  .00000000  00000+0  00000-0 0  9992
2 18634 100.0000 120.0000 0000000   0.0000 120.0000 14.89338871    14
CTC2_L_00176011-02
1 18635U 24919DZ  26070.40843750  .00000000  00000+0  00000-0 0  9993
2 18635 100.0000 120.0000 0000000   0.0000 210.0000 14.89338871    15
CTC2_L_00176011-03
1 18636U 26071UQ  26070.40843750  .00000000  00000+0  00000-0 0  9995
2 18636 100.0000 120.0000 0000000   0.0000 300.0000 14.89338871    16
CTC2_L_00176011-04
1 18637U 22021JN  26070.40843750  .00000000  00000+0  00000-0 0  9997
2 18637 100.0000 120.0000 0000000   0.0000  30.0000 14.89338871    17
CTC2_L_00176012-01
1 18638U 23708V   26070.40843750  .00000000  00000+0  00000-0 0  9991
2 18638 100.0000 132.0000 0000000   0.0000 132.0000 14.89338871    14
CTC2_L_00176012-02
1 18639U 23394QU  26070.40843750  .00000000  00000+0  00000-0 0  9993
2 18639 100.0000 132.0000 0000000   0.0000 222.0000 14.89338871    15
CTC2_L_00176012-03
1 18640U 24864QI  26070.40843750  .00000000  00000+0  00000-0 0  9998
2 18640 100.0000 132.0000 0000000   0.0000 312.0000 14.89338871    17
CTC2_L_00176012-04
1 18641U 22545NX  26070.40843750  .00000000  00000+0  00000-0 0  9993
2 18641 100.0000 132.0000 0000000   0.0000  42.0000 14.89338871    18
CTC2_L_00176013-01
1 18642U 26100AW  26070.40843750  .00000000  00000+0  00000-0 0  9995
2 18642 100.0000 144.0000 0000000   0.0000 144.0000 14.89338871    15
CTC2_L_00176013-02
1 18643U 26434QU  26070.40843750  .00000000  00000+0  00000-0 0  9996
2 18643 100.0000 144.0000 0000000   0.0000 234.0000 14.89338871    16
CTC2_L_00176013-03
1 18644U 26954PZ  26070.40843750  .00000000  00000+0  00000-0 0  9994
2 18644 100.0000 144.0000 0000000   0.0000 324.0000 14.89338871    17
CTC2_L_00176013-04
1 18645U 22736WA  26070.40843750  .00000000  00000+0  00000-0 0  9999
2 18645 100.0000 144.0000 0000000   0.0000  54.0000 14.89338871    18
CTC2_L_00176014-01
1 18646U 23327BK  26070.40843750  .00000000  00000+0  00000-0 0  9997
2 18646 100.0000 156.0000 0000000   0.0000 156.0000 14.89338871    15
CTC2_L_00176014-02
1 18647U 26165CC  26070.40843750  .00000000  00000+0  00000-0 0  9991
2 18647 100.0000 156.0000 0000000   0.0000 246.0000 14.89338871    16
CTC2_L_00176014-03
1 18648U 23063CJ  26070.40843750  .00000000  00000+0  00000-0 0  9996
2 18648 100.0000 156.0000 0000000   0.0000 336.0000 14.89338871    17
CTC2_L_00176014-04
1 18649U 24649QM  26070.40843750  .00000000  00000+0  00000-0 0  9998
2 18649 100.0000 156.0000 0000000   0.0000  66.0000 14.89338871    18
CTC2_L_00176015-01
1 18650U 23495MN  26070.40843750  .00000000  00000+0  00000-0 0  9998
2 18650 100.0000 168.0000 0000000   0.0000 168.0000 14.89338871    16
CTC2_L_00176015-02
1 18651U 24654SM  26070.40843750  .00000000  00000+0  00000-0 0  9997
2 18651 100.0000 168.0000 0000000   0.0000 258.0000 14.89338871    17
CTC2_L_00176015-03
1 18652U 26910TA  26070.40843750  .00000000  00000+0  00000-0 0  9995
2 18652 100.0000 168.0000 0000000   0.0000 348.0000 14.89338871    18
CTC2_L_00176015-04
1 18653U 24445YW  26070.40843750  .00000000  00000+0  00000-0 0  9997
2 18653 100.0000 168.0000 0000000   0.0000  78.0000 14.89338871    19
CTC2_L_00176016-01
1 18654U 24446JR  26070.40843750  .00000000  00000+0  00000-0 0  9999
2 18654 100.0000 180.0000 0000000   0.0000 180.0000 14.89338871    18
CTC2_L_00176016-02
1 18655U 23126QA  26070.40843750  .00000000  00000+0  00000-0 0  9994
2 18655 100.0000 180.0000 0000000   0.0000 270.0000 14.89338871    19
